GAOFEN-6                
1 43484U 18048A   24225.21206816  .00003564  00000+0  51764-3 0  9998
2 43484  97.8601 298.1282 0010516 187.2909 172.8149 14.76547391333937
GAOFEN-11 01            
1 43585U 18063A   24225.16121562  .00021129  00000+0  68247-3 0  9996
2 43585  97.2271 289.6722 0006352 266.4343  93.6172 15.32110107336321
ICESAT-2                
1 43613U 18070A   24224.91934213  .00036257  00000+0  13110-2 0  9999
2 43613  91.9955 109.6441 0006614 174.3334 185.7991 15.28295740329483
HYSIS                   
1 43719U 18096A   24225.15128225  .00006195  00000+0  84982-3 0  9993
2 43719  97.8616 287.7987 0002334 131.0925 229.0488 14.78754861307817
KAZSTSAT                
1 43783U 18099AB  24224.87501657  .00005572  00000+0  49170-3 0  9997
2 43783  97.5217 273.7986 0008422 146.5460 213.6296 14.96752402310319
SAUDISAT 5A             
1 43831U 18102A   24225.20388165  .00013218  00000+0  67475-3 0  9995
2 43831  97.4035 289.5101 0011633 350.8343   9.2676 15.16778165313087
SAUDISAT 5B             
1 43833U 18102C   24225.15238166  .00012298  00000+0  61680-3 0  9995
2 43833  97.4085 291.3702 0012468 354.9339   5.1766 15.17405988313164
GAOFEN-10R              
1 44622U 19066A   24225.13773643  .00006176  00000+0  78859-3 0  9998
2 44622  97.9655 166.8021 0002989 108.1471 252.0068 14.81790708262508
CARTOSAT-3              
1 44804U 19081A   24225.16270905  .00013337  00000+0  63561-3 0  9994
2 44804  97.5281 282.7700 0011058 347.5064  12.5895 15.19186025261089
GAOFEN-12 01            
1 44819U 19082A   24225.19462670  .00002070  00000+0  27689-3 0  9999
2 44819  97.8238 237.9681 0001596 158.7706 201.3572 14.80527206254361
CSG-1                   
1 44873U 19092A   24225.16116267  .00002415  00000+0  30969-3 0  9993
2 44873  97.8893  47.4894 0001179  86.8664 273.2684 14.82178211251638
NUSAT-6 (HYPATIA)       
1 46272U 20061A   24225.14278425  .00345678  00000+0  18675-2 0  9999
2 46272  97.2219 301.3769 0002750 205.6257 154.4875 15.79184337220267
NEMO-HD                 
1 46277U 20061F   24225.16904937  .00016959  00000+0  63517-3 0  9993
2 46277  97.2927 286.5985 0000603  44.8659 315.2629 15.27347537218487
SENTINEL-6              
1 46984U 20086A   24224.89979969 -.00000048  00000+0  58438-4 0  9991
2 46984  66.0409  95.5572 0007794 269.7967  90.2155 12.80930532173965
GAOFEN-12 02            
1 48079U 21026A   24225.18206336  .00002344  00000+0  30808-3 0  9997
2 48079  97.9536 216.4152 0001871 102.6233 257.5188 14.81180104182032
PLEIADES NEO 3          
1 48268U 21034A   24225.21158583  .00004848  00000+0  62182-3 0  9991
2 48268  97.8937 298.6502 0001300  96.3873 263.7487 14.81697996177850
NUSAT-19 (ROSALIND)     
1 48905U 21059AC  24225.16338560  .00148458  00000+0  16338-2 0  9992
2 48905  97.5940  21.0809 0003685 186.5058 173.6153 15.62653857174553
PLEIADES NEO 4          
1 49070U 21073E   24225.17781231  .00005086  00000+0  65243-3 0  9999
2 49070  97.8942 298.6118 0001101  96.7458 263.3880 14.81675564161564
LANDSAT 9               
1 49260U 21088A   24225.20525924  .00001638  00000+0  37372-3 0  9996
2 49260  98.2284 294.1082 0001157  84.6066 275.5265 14.57099480152845
CSG-2                   
1 51444U 22008A   24225.12742831  .00001611  00000+0  20886-3 0  9998
2 51444  97.8887  47.4498 0001367  86.2200 273.9170 14.82166600136742
INS-2TD                 
1 51658U 22013C   24225.03995902  .00141663  00000+0  22285-2 0  9996
2 51658  97.5132 250.5942 0001327 282.4699  77.6405 15.53101525138643
GAOFEN-12 03            
1 52912U 22069A   24225.22726690  .00005955  00000+0  78799-3 0  9993
2 52912  97.9033 115.4971 0008889 354.6030   5.5085 14.80277025114908
SWOT                    
1 54754U 22173A   24224.96039946  .00000329  00000+0  22452-3 0  9991
2 54754  77.6079 225.4408 0000294 143.4247 216.6924 14.00170348 84794
GAOFEN-12 04            
1 57654U 23123A   24225.19159424  .00005589  00000+0  74023-3 0  9993
2 57654  97.9057 141.8955 0000930  66.3756 293.7553 14.80289481 52910
PARS 1                  
1 59065U 24039Q   24225.15487558  .00017104  00000+0  64476-3 0  9993
2 59065  97.3975 186.5883 0014363  21.0112 339.1714 15.27037692 25119
RESURS-P 4              
1 59371U 24061A   24225.12623818  .00012398  00000+0  38465-3 0  9995
2 59371  97.1886 176.6425 0001519  88.3454 271.7963 15.33531086 20490
ALOS-4 (DAICHI-4)       
1 60182U 24123A   24224.85903468  .00010700  00000+0  14372-2 0  9992
2 60182  97.9209 320.7231 0001530 100.5120 259.6264 14.79477480  6170
SARSAT 7 (NOAA 15)      
1 25338U 98030A   24225.13446912  .00000742  00000+0  32478-3 0  9995
2 25338  98.5668 251.0886 0010842 155.4656 204.7043 14.26657409365415
GPS BIIR-08             
1 27663U 03005A   24224.84099810  .00000073  00000+0  00000+0 0  9993
2 27663  55.0853 241.7798 0136737  47.4867 177.8136  2.00571748157788
GPS BIIR-11             
1 28190U 04009A   24224.42861090 -.00000053  00000+0  00000+0 0  9994
2 28190  55.4055 302.8338 0098741 151.1286 292.6525  2.00557800149413
GPS BIIR-13             
1 28474U 04045A   24224.97099425 -.00000090  00000+0  00000+0 0  9995
2 28474  55.4170 351.9795 0162461 293.7641 227.5275  2.00561867144903
SARSAT 10 (NOAA 18)     
1 28654U 05018A   24225.20936395  .00000650  00000+0  37005-3 0  9999
2 28654  98.8722 301.7058 0013160 263.5410  96.4263 14.13279331991170
GPS BIIR-14M            
1 28874U 05038A   24224.33861057 -.00000049  00000+0  00000+0 0  9994
2 28874  55.4513 300.3007 0137075 284.5433 117.2981  2.00551787138308
METEOSAT-9 (MSG-2)      
1 28912U 05049B   24224.69045068  .00000132  00000+0  00000+0 0  9996
2 28912   7.8098  60.3885 0000759   3.0374 191.5630  1.00278459   241
GOES 13                 
1 29155U 06018A   24224.82217240 -.00000201  00000+0  00000+0 0  9999
2 29155   2.7661  84.6385 0074835 256.2218 265.2934  0.99024162 36589
GPS BIIR-16M            
1 29601U 06052A   24224.34102867  .00000069  00000+0  00000+0 0  9999
2 29601  55.1173 240.7814 0084260  83.5079 277.4925  2.00570895129879
GPS BIIR-17M            
1 32260U 07047A   24224.64449493 -.00000026  00000+0  00000+0 0  9995
2 32260  53.6340 107.9520 0157571  76.5590 285.2586  2.00561307123284
GPS BIIR-18M            
1 32384U 07062A   24224.70246889 -.00000048  00000+0  00000+0 0  9994
2 32384  55.5916 301.1564 0029128 155.8433  16.8051  2.00577835121983
SARSAT 12 (NOAA 19)     
1 33591U 09005A   24225.16880913  .00000621  00000+0  35682-3 0  9991
2 33591  99.0433 281.5505 0014679 132.1796 228.0625 14.13073309799532
GOES 14                 
1 35491U 09033A   24224.65981873 -.00000056  00000+0  00000+0 0  9998
2 35491   0.0776 257.2200 0004191 242.6461 309.8576  1.00273889 55345
GOES 15                 
1 36411U 10008A   24224.83670517  .00000044  00000+0  00000+0 0  9991
2 36411   0.4687 274.6274 0005520 283.9305 125.1393  1.00281857 52885
GSAT0101 (GALILEO-PFM)  
1 37846U 11060A   24223.10244180 -.00000089  00000+0  00000+0 0  9995
2 37846  57.1294   0.0774 0002011  70.7030 289.3209  1.70476017 79593
GSAT0102 (GALILEO-FM2)  
1 37847U 11060B   24225.07756590 -.00000083  00000+0  00000+0 0  9991
2 37847  57.1304   0.0242 0001521 359.7227 178.0589  1.70475454 79756
LUCH 5A                 
1 37951U 11074B   24224.92912319 -.00000042  00000+0  00000+0 0  9993
2 37951   7.0236  84.0932 0004300  55.7809 322.3718  1.00272891 46435
METEOSAT-10 (MSG-3)     
1 38552U 12035B   24224.89605459  .00000006  00000+0  00000+0 0  9998
2 38552   3.0871  61.3214 0000190 189.3414  33.0161  1.00277416 44090
SARSAT 13 (METOP-B)     
1 38771U 12049A   24225.13331443  .00000669  00000+0  32580-3 0  9990
2 38771  98.6240 281.0886 0000882  91.6260 268.5019 14.21470147617491
GPS BIIF-3              
1 38833U 12053A   24224.74205924  .00000041  00000+0  00000+0 0  9996
2 38833  53.5193 171.2001 0154888  56.6131 304.8433  2.00559546 85915
GSAT0103 (GALILEO-FM3)  
1 38857U 12055A   24223.14187129 -.00000007  00000+0  00000+0 0  9996
2 38857  55.4276 120.1228 0003279 281.0623  78.9585  1.70473703 73487
GPS BIIF-4              
1 39166U 13023A   24224.10603440 -.00000043  00000+0  00000+0 0  9992
2 39166  55.0643 296.3683 0123765  45.0292 316.0335  2.00562701 82344
INSAT-3D                
1 39216U 13038B   24224.92172628 -.00000314  00000+0  00000+0 0  9994
2 39216   0.1728  94.4529 0008268 215.5599 111.9571  1.00414665 40314
GPS BIIF-5              
1 39533U 14008A   24224.10424436  .00000050  00000+0  00000+0 0  9997
2 39533  53.6019 176.8314 0073373 221.2491 138.1775  2.00571713 76149
LUCH 5V                 
1 39727U 14023A   24224.91485149 -.00000260  00000+0  00000+0 0  9990
2 39727   3.4315  75.6364 0002723 112.6818 196.6242  1.00272640 37594
GPS BIIF-6              
1 39741U 14026A   24224.38331277 -.00000087  00000+0  00000+0 0  9999
2 39741  56.7069 357.7311 0031074 314.8970  44.8617  2.00564496 75001
GPS BIIF-7              
1 40105U 14045A   24224.47563344 -.00000020  00000+0  00000+0 0  9995
2 40105  54.9524 115.3991 0027672 114.8182 245.5292  2.00570251 72548
GSAT0201 (GALILEO 5)    
1 40128U 14050A   24224.06456275 -.00000069  00000+0  00000+0 0  9998
2 40128  49.6024 300.8576 1612749 153.4102 215.8888  1.85519574 65799
GSAT0202 (GALILEO 6)    
1 40129U 14050B   24223.78366555 -.00000069  00000+0  00000+0 0  9998
2 40129  49.6193 299.9464 1611715 154.1973 214.8483  1.85520247 67956
GPS BIIF-8              
1 40294U 14068A   24224.84892296 -.00000038  00000+0  00000+0 0  9990
2 40294  56.4690  57.0696 0055087  64.4138 296.2121  2.00563523 71686
GLONASS-K 2             
1 40315U 14075A   24224.50574791  .00000096  00000+0  00000+0 0  9995
2 40315  63.6230 213.7523 0020992 211.5290 148.3545  2.13101532 75471
GPS BIIF-9              
1 40534U 15013A   24224.97860977  .00000080  00000+0  00000+0 0  9999
2 40534  53.3279 232.0845 0089253  29.9534 330.5832  2.00562280 68722
